H1 CPF 01  gfz 2021 04 26 00  6161 tandemx   
H2 1003001  6202 36605    2021 04 26 00 59 42 2021 05 01 00 00 42   120 1 1  0 0 0
H9
10 0 59331  49662.000000  0   -3182583.442  -5760147.903  -2047256.556
10 0 59331  49782.000000  0   -3180874.176  -5388759.114  -2890318.802
10 0 59331  49902.000000  0   -3116409.962  -4924030.427  -3682649.170
10 0 59331  50022.000000  0   -2988819.524  -4375253.454  -4410408.060
10 0 59331  50142.000000  0   -2799004.217  -3753162.809  -5060919.139
10 0 59331  50262.000000  0   -2549139.285  -3069718.154  -5622883.961
10 0 59331  50382.000000  0   -2242650.158  -2337868.085  -6086569.402
10 0 59331  50502.000000  0   -1884163.672  -1571301.106  -6443966.047
10 0 59331  50622.000000  0   -1479435.498   -784188.440  -6688914.971
10 0 59331  50742.000000  0   -1035256.939      9075.733  -6817202.161
10 0 59331  50862.000000  0    -559342.308    794131.899  -6826622.341
10 0 59331  50982.000000  0     -60197.223   1556908.302  -6717012.762
10 0 59331  51102.000000  0     453028.603   2283866.205  -6490255.646
10 0 59331  51222.000000  0     970704.559   2962235.364  -6150251.719
10 0 59331  51342.000000  0    1482896.343   3580236.284  -5702860.151
10 0 59331  51462.000000  0    1979552.147   4127284.490  -5155806.952
10 0 59331  51582.000000  0    2450697.115   4594174.827  -4518563.542
10 0 59331  51702.000000  0    2886632.170   4973243.222  -3802193.708
10 0 59331  51822.000000  0    3278132.825   5258500.772  -3019170.500
10 0 59331  51942.000000  0    3616645.121   5445737.946  -2183165.828
10 0 59331  52062.000000  0    3894473.204   5532594.695  -1308814.153
10 0 59331  52182.000000  0    4104953.309   5518595.146   -411455.199
10 0 59331  52302.000000  0    4242609.810   5405144.710    493140.108
10 0 59331  52422.000000  0    4303289.186   5195488.373   1389054.184
10 0 59331  52542.000000  0    4284267.051   4894631.688   2260510.099
10 0 59331  52662.000000  0    4184328.699   4509229.124   3092158.166
10 0 59331  52782.000000  0    4003816.444   4047436.160   3869355.853
10 0 59331  52902.000000  0    3744644.877   3518733.354   4578429.586
10 0 59331  53022.000000  0    3410286.371   2933727.768   5206918.024
10 0 59331  53142.000000  0    3005721.444   2303934.400   5743792.961
10 0 59331  53262.000000  0    2537360.089   1641543.834   6179646.871
10 0 59331  53382.000000  0    2012937.051    959182.579   6506852.709
10 0 59331  53502.000000  0    1441380.354    269670.104   6719690.753
10 0 59331  53622.000000  0     832656.809   -414220.951   6814443.111
10 0 59331  53742.000000  0     197597.186  -1080001.285   6789456.026
10 0 59331  53862.000000  0    -452296.927  -1715693.209   6645166.570
10 0 59331  53982.000000  0   -1105061.468  -2310046.105   6384094.794
10 0 59331  54102.000000  0   -1748488.928  -2852735.493   6010800.798
10 0 59331  54222.000000  0   -2370354.163  -3334543.007   5531810.678
10 0 59331  54342.000000  0   -2958647.626  -3747516.910   4955510.636
10 0 59331  54462.000000  0   -3501811.830  -4085108.440   4292006.062
10 0 59331  54582.000000  0   -3988972.448  -4342280.003   3552947.479
10 0 59331  54702.000000  0   -4410159.451  -4515584.102   2751327.982
10 0 59331  54822.000000  0   -4756515.049  -4603211.651   1901255.197
10 0 59331  54942.000000  0   -5020483.532  -4605007.269   1017699.199
10 0 59331  55062.000000  0   -5195976.885  -4522450.195    116222.658
10 0 59331  55182.000000  0   -5278512.451  -4358601.928   -787301.319
10 0 59331  55302.000000  0   -5265318.753  -4118021.639  -1676978.235
10 0 59331  55422.000000  0   -5155405.711  -3806650.408  -2537181.379
10 0 59331  55542.000000  0   -4949597.625  -3431668.400  -3352832.484
10 0 59331  55662.000000  0   -4650530.095  -3001330.105  -4109668.621
10 0 59331  55782.000000  0   -4262611.672  -2524781.685  -4794491.053
10 0 59331  55902.000000  0   -3791950.789  -2011864.798  -5395391.167
10 0 59331  56022.000000  0   -3246251.114  -1472912.154  -5901949.876
10 0 59331  56142.000000  0   -2634678.340   -918538.946  -6305408.160
10 0 59331  56262.000000  0   -1967700.940   -359434.939  -6598807.317
10 0 59331  56382.000000  0   -1256907.869    193838.572  -6777096.925
10 0 59331  56502.000000  0    -514808.979    731042.989  -6837211.106
10 0 59331  56622.000000  0     245380.525   1242446.944  -6778115.625
10 0 59331  56742.000000  0    1009968.627   1718997.304  -6600823.915
10 0 59331  56862.000000  0    1765027.617   2152476.179  -6308383.966
10 0 59331  56982.000000  0    2496642.741   2535641.110  -5905831.317
10 0 59331  57102.000000  0    3191165.124   2862346.000  -5400110.790
10 0 59331  57222.000000  0    3835463.560   3127640.623  -4799967.596
10 0 59331  57342.000000  0    4417174.641   3327848.918  -4115808.509
10 0 59331  57462.000000  0    4924944.954   3460622.525  -3359531.281
10 0 59331  57582.000000  0    5348658.752   3524968.124  -2544324.868
10 0 59331  57702.000000  0    5679646.936   3521249.097  -1684444.318
10 0 59331  57822.000000  0    5910872.506   3451159.008   -794961.543
10 0 59331  57942.000000  0    6037085.897   3317667.323    108501.806
10 0 59331  58062.000000  0    6054947.398   3124938.612   1010054.564
10 0 59331  58182.000000  0    5963111.619   2878226.679   1893823.716
10 0 59331  58302.000000  0    5762271.382   2583747.432   2744242.351
10 0 59331  58422.000000  0    5455161.215   2248532.400   3546332.954
10 0 59331  58542.000000  0    5046517.981   1880266.513   4285978.314
10 0 59331  58662.000000  0    4543000.869   1487115.356   4950173.368
10 0 59331  58782.000000  0    3953076.454   1077545.950   5527253.528
10 0 59331  58902.000000  0    3286867.503    660145.522   6007099.810
10 0 59331  59022.000000  0    2555969.277    243442.200   6381310.194
10 0 59331  59142.000000  0    1773242.736   -164267.021   6643339.623
10 0 59331  59262.000000  0     952585.301   -555079.950   6788609.861
10 0 59331  59382.000000  0     108681.118   -921641.679   6814585.405
10 0 59331  59502.000000  0    -743262.403  -1257282.157   6720813.932
10 0 59331  59622.000000  0   -1587788.045  -1556137.634   6508932.899
10 0 59331  59742.000000  0   -2409467.699  -1813252.875   6182641.403
10 0 59331  59862.000000  0   -3193182.226  -2024662.747   5747640.854
10 0 59331  59982.000000  0   -3924402.878  -2187454.638   5211543.834
10 0 59331  60102.000000  0   -4589466.165  -2299809.023   4583745.840
10 0 59331  60222.000000  0   -5175835.536  -2361016.479   3875264.675
10 0 59331  60342.000000  0   -5672344.697  -2371470.305   3098549.839
10 0 59331  60462.000000  0   -6069418.333  -2332635.929   2267265.550
10 0 59331  60582.000000  0   -6359266.288  -2246998.615   1396049.357
10 0 59331  60702.000000  0   -6536044.418  -2117988.582    500247.699
10 0 59331  60822.000000  0   -6595975.454  -1949885.189   -404362.008
10 0 59331  60942.000000  0   -6537430.161  -1747703.149  -1301858.470
10 0 59331  61062.000000  0   -6360963.461  -1517063.958  -2176466.061
10 0 59331  61182.000000  0   -6069306.474  -1264056.163  -3012839.213
10 0 59331  61302.000000  0   -5667315.482   -995088.124  -3796336.120
10 0 59331  61422.000000  0   -5161879.870   -716736.593  -4513276.386
10 0 59331  61542.000000  0   -4561791.704   -435594.823  -5151177.544
10 0 59331  61662.000000  0   -3877580.410   -158124.610  -5698966.354
10 0 59331  61782.000000  0   -3121317.137    109484.794  -6147161.397
10 0 59331  61902.000000  0   -2306394.900    361447.901  -6488024.869
10 0 59331  62022.000000  0   -1447288.837    592501.250  -6715684.590
10 0 59331  62142.000000  0    -559299.822    798007.548  -6826224.756
10 0 59331  62262.000000  0     341713.100    974045.077  -6817744.633
10 0 59331  62382.000000  0    1239607.663   1117479.259  -6690388.162
10 0 59331  62502.000000  0    2118241.360   1226017.188  -6446344.296
10 0 59331  62622.000000  0    2961756.095   1298244.248  -6089813.314
10 0 59331  62742.000000  0    3754860.240   1333641.351  -5626941.098
10 0 59331  62862.000000  0    4483103.045   1332582.824  -5065723.482
10 0 59331  62982.000000  0    5133140.508   1296315.388  -4415880.469
10 0 59331  63102.000000  0    5692986.148   1226918.191  -3688698.208
10 0 59331  63222.000000  0    6152240.610   1127244.075  -2896841.967
10 0 59331  63342.000000  0    6502296.289   1000843.177  -2054142.372
10 0 59331  63462.000000  0    6736511.869    851870.676  -1175356.006
10 0 59331  63582.000000  0    6850349.964    684979.700   -275904.726
10 0 59331  63702.000000  0    6841473.585    505202.756    628400.073
10 0 59331  63822.000000  0    6709800.305    317824.795   1521641.964
10 0 59331  63942.000000  0    6457511.856    128249.417   2388088.821
10 0 59331  64062.000000  0    6089016.151    -58136.509   3212479.407
10 0 59331  64182.000000  0    5610864.760   -236097.686   3980299.550
10 0 59331  64302.000000  0    5031627.887   -400679.128   4678041.695
10 0 59331  64422.000000  0    4361732.294   -547327.834   5293445.555
10 0 59331  64542.000000  0    3613261.824   -672003.701   5815712.590
10 0 59331  64662.000000  0    2799730.377   -771276.090   6235691.089
10 0 59331  64782.000000  0    1935830.874   -842405.604   6546031.120
10 0 59331  64902.000000  0    1037165.587   -883409.131   6741308.172
10 0 59331  65022.000000  0     119960.402   -893107.028   6818112.751
10 0 59331  65142.000000  0    -799228.980   -871151.253   6775104.856
10 0 59331  65262.000000  0   -1703814.806   -818034.706   6613035.093
10 0 59331  65382.000000  0   -2577475.133   -735080.677   6334731.999
10 0 59331  65502.000000  0   -3404447.168   -624413.093   5945056.535
10 0 59331  65622.000000  0   -4169813.825   -488907.928   5450823.716
10 0 59331  65742.000000  0   -4859778.218   -332127.079   4860689.954
10 0 59331  65862.000000  0   -5461919.710   -158235.327   4185006.376
10 0 59331  65982.000000  0   -5965426.171     28097.900   3435640.696
10 0 59331  66102.000000  0   -6361297.152    221810.111   2625770.952
99
